NORAD_CAT_ID,OBJECT_NAME,OBJECT_TYPE,EPOCH,MEAN_MOTION,ECCENTRICITY,INCLINATION,RA_OF_ASC_NODE,ARG_OF_PERICENTER,MEAN_ANOMALY,BSTAR,MEAN_MOTION_DOT,MEAN_MOTION_DDOT,TLE_LINE0,TLE_LINE1,TLE_LINE2,SEMIMAJOR_AXIS,PERIOD,APOGEE,PERIGEE,DECAYED
50185.0,STARLINK-3279,PAYLOAD,2023-11-05 12:25:24,15.08846747,0.0001329,53.2149,128.1739,90.0104,270.1041,0.00026514,3.935e-05,0.0,0 STARLINK-3279,1 50185U 21125AF  23309.51764289  .00003935  00000-0  26514-3 0  9990,2 50185  53.2149 128.1739 0001329  90.0104 270.1041 15.08846747107020,6917.86,95.437,540.644,538.805,0.0
50185.0,STARLINK-3279,PAYLOAD,2023-11-05 18:46:56,15.08848765,0.0001317,53.2151,126.9842,90.7253,269.389,0.00022445,3.287e-05,0.0,0 STARLINK-3279,1 50185U 21125AF  23309.78260050  .00003287  00000-0  22445-3 0  9995,2 50185  53.2151 126.9842 0001317  90.7253 269.3890 15.08848765107544,6917.854,95.437,540.63,538.808,0.0
50185.0,STARLINK-3279,PAYLOAD,2023-11-06 12:16:10,15.08848405,0.0001345,53.2148,123.713,90.6766,269.438,0.0001654,2.346e-05,0.0,0 STARLINK-3279,1 50185U 21125AF  23310.51123798  .00002346  00000-0  16540-3 0  9999,2 50185  53.2148 123.7130 0001345  90.6766 269.4380 15.08848405107652,6917.855,95.437,540.65,538.789,0.0
50185.0,STARLINK-3279,PAYLOAD,2023-11-06 18:37:43,15.08850387,0.0001252,53.2146,122.5237,87.4192,272.6943,0.00017235,2.457e-05,0.0,0 STARLINK-3279,1 50185U 21125AF  23310.77619533  .00002457  00000-0  17235-3 0  9999,2 50185  53.2146 122.5237 0001252  87.4192 272.6943 15.08850387107214,6917.849,95.437,540.58,538.848,0.0
50185.0,STARLINK-3279,PAYLOAD,2023-11-07 04:10:03,15.08824822,0.0001643,53.2165,120.7333,67.3871,292.7295,1.6902e-05,-1.9e-07,0.0,0 STARLINK-3279,1 50185U 21125AF  23311.17364949 -.00000019  00000-0  16902-4 0  9996,2 50185  53.2165 120.7333 0001643  67.3871 292.7295 15.08824822107271,6917.927,95.439,540.928,538.655,0.0
50185.0,STARLINK-3279,PAYLOAD,2023-11-07 13:42:22,15.08823614,0.0001366,53.215,118.9546,90.6619,269.4529,-0.0002266,-3.891e-05,0.0,0 STARLINK-3279,1 50185U 21125AF  23311.57109071 -.00003891  00000-0 -22660-3 0  9992,2 50185  53.2150 118.9546 0001366  90.6619 269.4529 15.08823614107810,6917.93,95.439,540.74,538.85,0.0
50185.0,STARLINK-3279,PAYLOAD,2023-11-08 10:22:23,15.0882965,0.0001407,53.2152,115.0895,91.7573,268.358,0.00010485,1.381e-05,0.0,0 STARLINK-3279,1 50185U 21125AF  23312.43221494  .00001381  00000-0  10485-3 0  9994,2 50185  53.2152 115.0895 0001407  91.7573 268.3580 15.08829650107466,6917.912,95.438,540.75,538.804,0.0
50185.0,STARLINK-3279,PAYLOAD,2023-11-08 13:33:09,15.08835586,0.0001325,53.2151,114.4949,84.6045,275.5098,9.3792e-05,1.205e-05,0.0,0 STARLINK-3279,1 50185U 21125AF  23312.56469299  .00001205  00000-0  93792-4 0  9993,2 50185  53.2151 114.4949 0001325  84.6045 275.5098 15.08835586107966,6917.894,95.438,540.676,538.842,0.0
50185.0,STARLINK-3279,PAYLOAD,2023-11-08 18:19:18,15.08839462,0.0001347,53.2147,113.6025,89.8156,270.2991,0.00027369,4.07e-05,0.0,0 STARLINK-3279,1 50185U 21125AF  23312.76341371  .00004070  00000-0  27369-3 0  9994,2 50185  53.2147 113.6025 0001347  89.8156 270.2991 15.08839462107995,6917.882,95.438,540.679,538.815,0.0
50185.0,STARLINK-3279,PAYLOAD,2023-11-09 03:51:38,15.08841294,0.0001364,53.2147,111.8187,88.4707,271.6441,0.00044916,6.868e-05,0.0,0 STARLINK-3279,1 50185U 21125AF  23313.16085658  .00006868  00000-0  44916-3 0  9996,2 50185  53.2147 111.8187 0001364  88.4707 271.6441 15.08841294107575,6917.876,95.437,540.685,538.798,0.0
50185.0,STARLINK-3279,PAYLOAD,2023-11-09 18:10:06,15.08844366,0.0001349,53.2147,109.1423,88.3465,271.7682,0.00034143,5.151e-05,0.0,0 STARLINK-3279,1 50185U 21125AF  23313.75701651  .00005151  00000-0  34143-3 0  9994,2 50185  53.2147 109.1423 0001349  88.3465 271.7682 15.08844366108146,6917.867,95.437,540.665,538.799,0.0
50185.0,STARLINK-3279,PAYLOAD,2023-11-10 03:42:24,15.08845209,0.0001384,53.2148,107.3592,85.5636,274.5514,0.00024516,3.616e-05,0.0,0 STARLINK-3279,1 50185U 21125AF  23314.15445588  .00003616  00000-0  24516-3 0  9990,2 50185  53.2148 107.3592 0001384  85.5636 274.5514 15.08845209107727,6917.864,95.437,540.687,538.772,0.0
50185.0,STARLINK-3279,PAYLOAD,2023-11-10 14:50:07,15.0883536,0.0001381,53.2151,105.2748,96.1714,263.9435,-2.4533e-05,-6.78e-06,0.0,0 STARLINK-3279,1 50185U 21125AF  23314.61813960 -.00000678  00000-0 -24533-4 0  9991,2 50185  53.2151 105.2748 0001381  96.1714 263.9435 15.08835360108275,6917.895,95.438,540.715,538.804,0.0
50185.0,STARLINK-3279,PAYLOAD,2023-11-10 18:00:53,15.08838429,0.000138,53.2157,104.6795,99.8641,260.2507,-3.2942e-06,-3.4e-06,0.0,0 STARLINK-3279,1 50185U 21125AF  23314.75061936 -.00000340  00000-0 -32942-5 0  9994,2 50185  53.2157 104.6795 0001380  99.8641 260.2507 15.08838429107812,6917.885,95.438,540.705,538.796,0.0
50185.0,STARLINK-3279,PAYLOAD,2023-11-11 14:40:53,15.08849837,0.0001335,53.215,100.816,91.8581,268.2564,0.00023409,3.441e-05,0.0,0 STARLINK-3279,1 50185U 21125AF  23315.61173366  .00003441  00000-0  23409-3 0  9990,2 50185  53.2150 100.8160 0001335  91.8581 268.2564 15.08849837108428,6917.85,95.437,540.639,538.792,0.0
50185.0,STARLINK-3279,PAYLOAD,2023-11-11 16:16:16,15.0885374,0.0001325,53.2151,100.5183,95.186,264.9284,0.00021264,3.099e-05,0.0,0 STARLINK-3279,1 50185U 21125AF  23315.67797157  .00003099  00000-0  21264-3 0  9992,2 50185  53.2151 100.5183 0001325  95.1860 264.9284 15.08853740107954,6917.838,95.437,540.62,538.787,0.0
50185.0,STARLINK-3279,PAYLOAD,2023-11-12 09:45:31,15.0884056,0.0001337,53.2185,97.2472,106.5837,253.5302,0.0001812,2.597e-05,0.0,0 STARLINK-3279,1 50185U 21125AF  23316.40661710  .00002597  00000-0  18120-3 0  9998,2 50185  53.2185  97.2472 0001337 106.5837 253.5302 15.08840560108062,6917.879,95.438,540.669,538.819,0.0
50185.0,STARLINK-3279,PAYLOAD,2023-11-12 12:56:17,15.08845022,0.0001613,53.2161,96.651,109.1656,250.9511,0.00018178,2.607e-05,0.0,0 STARLINK-3279,1 50185U 21125AF  23316.53909402  .00002607  00000-0  18178-3 0  9990,2 50185  53.2161  96.6510 0001613 109.1656 250.9511 15.08845022108563,6917.865,95.437,540.846,538.614,0.0
50185.0,STARLINK-3279,PAYLOAD,2023-11-12 19:17:49,15.08857701,0.0001248,53.2165,95.462,98.5633,261.5501,0.00038822,5.899e-05,0.0,0 STARLINK-3279,1 50185U 21125AF  23316.80404729  .00005899  00000-0  38822-3 0  9996,2 50185  53.2165  95.4620 0001248  98.5633 261.5501 15.08857701108122,6917.826,95.436,540.555,538.828,0.0
50185.0,STARLINK-3279,PAYLOAD,2023-11-13 09:36:16,15.08871264,0.0001147,53.2149,92.7878,93.5115,266.6008,0.00031814,4.783e-05,0.0,0 STARLINK-3279,1 50185U 21125AF  23317.40019077  .00004783  00000-0  31814-3 0  9996,2 50185  53.2149  92.7878 0001147  93.5115 266.6008 15.08871264108215,6917.785,95.436,540.443,538.856,0.0
50185.0,STARLINK-3279,PAYLOAD,2023-11-13 12:47:04,15.08831766,0.0001376,53.2151,92.1924,43.0526,317.0574,-0.00026812,-4.552e-05,0.0,0 STARLINK-3279,1 50185U 21125AF  23317.53268891 -.00004552  00000-0 -26812-3 0  9998,2 50185  53.2151  92.1924 0001376  43.0526 317.0574 15.08831766108711,6917.906,95.438,540.722,538.819,0.0
50185.0,STARLINK-3279,PAYLOAD,2023-11-13 15:57:50,15.08844302,0.00012,53.2176,91.5973,88.8592,271.2537,-0.00014632,-2.616e-05,0.0,0 STARLINK-3279,1 50185U 21125AF  23317.66516983 -.00002616  00000-0 -14632-3 0  9996,2 50185  53.2176  91.5973 0001200  88.8592 271.2537 15.08844302108250,6917.867,95.437,540.562,538.902,0.0
50185.0,STARLINK-3279,PAYLOAD,2023-11-13 19:08:37,15.08836599,0.0001402,53.216,91.0029,89.9713,270.144,-8.5904e-05,-1.655e-05,0.0,0 STARLINK-3279,1 50185U 21125AF  23317.79765227 -.00001655  00000-0 -85904-4 0  9990,2 50185  53.2160  91.0029 0001402  89.9713 270.1440 15.08836599108756,6917.891,95.438,540.726,538.786,0.0
50185.0,STARLINK-3279,PAYLOAD,2023-11-14 01:30:09,15.08833551,0.0001381,53.2169,89.8121,90.4351,269.68,-7.3006e-05,-1.449e-05,0.0,0 STARLINK-3279,1 50185U 21125AF  23318.06261429 -.00001449  00000-0 -73006-4 0  9997,2 50185  53.2169  89.8121 0001381  90.4351 269.6800 15.08833551108314,6917.9,95.438,540.72,538.81,0.0
50185.0,STARLINK-3279,PAYLOAD,2023-11-14 12:37:52,15.08827473,0.0001455,53.2171,87.7308,96.1344,263.9813,-4.3003e-05,-9.72e-06,0.0,0 STARLINK-3279,1 50185U 21125AF  23318.52629995 -.00000972  00000-0 -43003-4 0  9998,2 50185  53.2171  87.7308 0001455  96.1344 263.9813 15.08827473108865,6917.919,95.438,540.79,538.777,0.0
50185.0,STARLINK-3279,PAYLOAD,2023-11-14 15:48:38,15.08827963,0.0001306,53.2163,87.137,94.3001,265.814,6.204e-05,6.99e-06,0.0,0 STARLINK-3279,1 50185U 21125AF  23318.65877824  .00000699  00000-0  62040-4 0  9994,2 50185  53.2163  87.1370 0001306  94.3001 265.8140 15.08827963108884,6917.917,95.438,540.686,538.879,0.0
50185.0,STARLINK-3279,PAYLOAD,2023-11-15 12:28:38,15.08827962,0.0001382,53.2167,83.2717,87.8496,272.2655,0.00021658,3.16e-05,0.0,0 STARLINK-3279,1 50185U 21125AF  23319.51989449  .00003160  00000-0  21658-3 0  9992,2 50185  53.2167  83.2717 0001382  87.8496 272.2655 15.08827962108533,6917.917,95.438,540.738,538.826,0.0
50185.0,STARLINK-3279,PAYLOAD,2023-11-15 18:50:11,15.08836325,0.0001411,53.2165,82.0823,93.0696,267.0458,0.00028109,4.188e-05,0.0,0 STARLINK-3279,1 50185U 21125AF  23319.78485065  .00004188  00000-0  28109-3 0  9995,2 50185  53.2165  82.0823 0001411  93.0696 267.0458 15.08836325109054,6917.892,95.438,540.733,538.781,0.0
50185.0,STARLINK-3279,PAYLOAD,2023-11-16 17:05:35,15.08836481,0.0001438,53.217,77.918,75.4882,284.627,8.1377e-05,1.007e-05,0.0,0 STARLINK-3279,1 50185U 21125AF  23320.71221676  .00001007  00000-0  81377-4 0  9990,2 50185  53.2170  77.9180 0001438  75.4882 284.6270 15.08836481108711,6917.891,95.438,540.751,538.761,0.0
50185.0,STARLINK-3279,PAYLOAD,2023-11-17 13:45:36,15.0882662,0.0001124,53.2169,74.0549,94.4638,265.6482,0.00018015,2.579e-05,0.0,0 STARLINK-3279,1 50185U 21125AF  23321.57334384  .00002579  00000-0  18015-3 0  9999,2 50185  53.2169  74.0549 0001124  94.4638 265.6482 15.08826620109324,6917.921,95.438,540.564,539.009,0.0
